ORBCOMM FM20            
1 25416U 98046D   25178.89259231  .00000449  00000+0  19660-3 0  9998
2 25416  44.9933 130.5706 0002744 321.7674  38.2979 14.37225725405804
ORBCOMM FM16            
1 25417U 98046E   25178.87589287  .00000686  00000+0  26624-3 0  9995
2 25417  44.9930 122.0807 0006266 343.8830  16.1818 14.38932737405796
ORBCOMM FM15            
1 25418U 98046F   25179.20189637  .00000570  00000+0  23072-3 0  9995
2 25418  44.9959 125.7099 0005846 343.9426  16.1237 14.38576144406002
ORBCOMM FM14            
1 25419U 98046G   25178.86978438  .00000536  00000+0  21821-3 0  9994
2 25419  44.9952 125.4915 0004797 336.1236  23.9389 14.38937475405750
ORBCOMM FM13            
1 25420U 98046H   25179.13216569  .00000522  00000+0  21880-3 0  9997
2 25420  44.9965 132.3298 0006973 327.9504  32.0919 14.37689087405944
ORBCOMM FM21            
1 25475U 98053A   25178.79345106  .00000305  00000+0  14829-3 0  9990
2 25475  45.0070 219.2662 0003792 265.5355  94.5060 14.37365415398778
ORBCOMM FM22            
1 25476U 98053B   25179.10057226  .00000439  00000+0  18885-3 0  9994
2 25476  45.0059 212.5762 0005656 272.5292  87.4909 14.38408884399203
ORBCOMM FM23            
1 25477U 98053C   25178.79284296  .00000374  00000+0  17051-3 0  9990
2 25477  45.0070 221.3779 0004815 265.2780  94.7518 14.37549326398921
